{
  "norad_id": 66022,
  "name": "STARLINK-35340",
  "history": [
    {
      "epoch": "2026-03-28T22:23:21.407424Z",
      "apogee_km": 475.88851648787477,
      "perigee_km": 474.4728951825573,
      "latitude_deg": -4.384652678303964e-05,
      "longitude_deg": -147.79346125423527,
      "height_km": 476.32934553703984,
      "semi_major_axis_km": 6853.317705835216,
      "eccentricity": 0.00010328,
      "inclination_deg": 53.1621,
      "raan_deg": 14.392,
      "arg_perigee_deg": 110.6766,
      "mean_anomaly_deg": 249.4345,
      "mean_motion_rev_day": 15.30211509
    },
    {
      "epoch": "2026-03-29T01:31:27.718464Z",
      "apogee_km": 476.0652283146301,
      "perigee_km": 474.42864023112634,
      "latitude_deg": -1.5217091280807142e-05,
      "longitude_deg": 164.44531065664614,
      "height_km": 476.35160350924815,
      "semi_major_axis_km": 6853.383934272878,
      "eccentricity": 0.0001194,
      "inclination_deg": 53.1613,
      "raan_deg": 13.7858,
      "arg_perigee_deg": 104.6027,
      "mean_anomaly_deg": 255.5106,
      "mean_motion_rev_day": 15.30189328
    },
    {
      "epoch": "2026-03-30T01:02:15.840960Z",
      "apogee_km": 476.33342463098325,
      "perigee_km": 474.11416933770306,
      "latitude_deg": 4.4022563360483324e-05,
      "longitude_deg": 166.22888523143885,
      "height_km": 476.018762651446,
      "semi_major_axis_km": 6853.360796984342,
      "eccentricity": 0.00016191,
      "inclination_deg": 53.1619,
      "raan_deg": 9.2355,
      "arg_perigee_deg": 84.6827,
      "mean_anomaly_deg": 275.4359,
      "mean_motion_rev_day": 15.30197077
    },
    {
      "epoch": "2026-03-30T12:00:38.556000Z",
      "apogee_km": 475.9721255102522,
      "perigee_km": 474.39901384760833,
      "latitude_deg": -1.9204415801081274e-05,
      "longitude_deg": -0.9403514713304502,
      "height_km": 476.0682513630825,
      "semi_major_axis_km": 6853.32256967893,
      "eccentricity": 0.00011477,
      "inclination_deg": 53.1621,
      "raan_deg": 7.1116,
      "arg_perigee_deg": 88.8495,
      "mean_anomaly_deg": 271.2637,
      "mean_motion_rev_day": 15.3020988
    },
    {
      "epoch": "2026-03-31T11:31:26.373504Z",
      "apogee_km": 475.8377101007263,
      "perigee_km": 474.5242031811558,
      "latitude_deg": 3.5040461000602e-05,
      "longitude_deg": 0.843694386784939,
      "height_km": 476.08378670179445,
      "semi_major_axis_km": 6853.317956640941,
      "eccentricity": 9.583e-05,
      "inclination_deg": 53.1621,
      "raan_deg": 2.5605,
      "arg_perigee_deg": 90.3585,
      "mean_anomaly_deg": 269.7526,
      "mean_motion_rev_day": 15.30211425
    },
    {
      "epoch": "2026-04-01T11:02:14.521920Z",
      "apogee_km": 476.0327375418192,
      "perigee_km": 474.3180387823004,
      "latitude_deg": -4.9003637768908375e-05,
      "longitude_deg": 2.627854691963387,
      "height_km": 476.00365868633105,
      "semi_major_axis_km": 6853.3123881620595,
      "eccentricity": 0.0001251,
      "inclination_deg": 53.162,
      "raan_deg": 358.011,
      "arg_perigee_deg": 85.3124,
      "mean_anomaly_deg": 274.8019,
      "mean_motion_rev_day": 15.3021329
    },
    {
      "epoch": "2026-04-02T16:49:14.735136Z",
      "apogee_km": 476.22958711649426,
      "perigee_km": 474.08450607990926,
      "latitude_deg": -1.4294754439269126e-05,
      "longitude_deg": -91.11046716482278,
      "height_km": 475.9493309588112,
      "semi_major_axis_km": 6853.294046598202,
      "eccentricity": 0.0001565,
      "inclination_deg": 53.1608,
      "raan_deg": 352.2467,
      "arg_perigee_deg": 84.3556,
      "mean_anomaly_deg": 275.7623,
      "mean_motion_rev_day": 15.30219433
    },
    {
      "epoch": "2026-04-02T21:31:23.896704Z",
      "apogee_km": 475.656399077262,
      "perigee_km": 474.595925135558,
      "latitude_deg": -2.3564280897967176e-06,
      "longitude_deg": -162.75295798940795,
      "height_km": 476.17108981092264,
      "semi_major_axis_km": 6853.263162106409,
      "eccentricity": 7.737e-05,
      "inclination_deg": 53.1618,
      "raan_deg": 351.3355,
      "arg_perigee_deg": 105.9769,
      "mean_anomaly_deg": 254.1317,
      "mean_motion_rev_day": 15.30229777
    }
  ]
}